SPACEBEE-7              
1 43816U 18099BL  25068.17174516  .00038516  00000+0  13748-2 0  9999
2 43816  97.5081 137.0960 0007522  90.7474 269.4628 15.28736560342646
